[{"OBJECT_NAME":"IRIDIUM 118","OBJECT_ID":"2017-039E","EPOCH":"2026-03-09T21:26:30.895296","MEAN_MOTION":14.34218754,"ECCENTRICITY":0.00022329,"INCLINATION":86.3973,"RA_OF_ASC_NODE":35.1169,"ARG_OF_PERICENTER":84.727,"MEAN_ANOMALY":275.4181,"EPHEMERIS_TYPE":0,"CLASSIFICATION_TYPE":"U","NORAD_CAT_ID":42807,"ELEMENT_SET_NO":999,"REV_AT_EPOCH":45571,"BSTAR":0.00012914778,"MEAN_MOTION_DOT":3.81e-6,"MEAN_MOTION_DDOT":0},{"OBJECT_NAME":"COSMOS 923","OBJECT_ID":"1977-059A","EPOCH":"2026-03-09T16:52:02.955072","MEAN_MOTION":14.32871357,"ECCENTRICITY":0.00122322,"INCLINATION":74.0488,"RA_OF_ASC_NODE":204.8264,"ARG_OF_PERICENTER":153.7299,"MEAN_ANOMALY":206.4476,"EPHEMERIS_TYPE":0,"CLASSIFICATION_TYPE":"U","NORAD_CAT_ID":10120,"ELEMENT_SET_NO":999,"REV_AT_EPOCH":54161,"BSTAR":9.6280583e-5,"MEAN_MOTION_DOT":2.37e-6,"MEAN_MOTION_DDOT":0}]
